[{"COMMENT":"GENERATED VIA SPACETRACK.ORG API","ORIGINATOR":"18 SPCS","NORAD_CAT_ID":"43477","OBJECT_NAME":"GRACE-FO 2","OBJECT_TYPE":"PAYLOAD","CLASSIFICATION_TYPE":"U","INTLDES":"18047B","EPOCH":"2023-11-13 03:19:27","EPOCH_MICROSECONDS":"361632","MEAN_MOTION":"15.27319258","ECCENTRICITY":"0.0013787","INCLINATION":"88.9812","RA_OF_ASC_NODE":"328.9154","ARG_OF_PERICENTER":"171.4945","MEAN_ANOMALY":"188.6541","EPHEMERIS_TYPE":"0","ELEMENT_SET_NO":"999","REV_AT_EPOCH":"30472","BSTAR":"0.00013405","MEAN_MOTION_DOT":"0.00003623","MEAN_MOTION_DDOT":"0","FILE":"4086253","TLE_LINE0":"0 GRACE-FO 2","TLE_LINE1":"1 43477U 18047B   23317.13851113  .00003623  00000-0  13405-3 0  9994","TLE_LINE2":"2 43477  88.9812 328.9154 0013787 171.4945 188.6541 15.27319258304724","OBJECT_ID":"2018-047B","OBJECT_NUMBER":"43477","SEMIMAJOR_AXIS":"6861.967","PERIOD":"94.283","APOGEE":"493.293","PERIGEE":"474.371","DECAYED":"0"},{"COMMENT":"GENERATED VIA SPACETRACK.ORG API","ORIGINATOR":"18 SPCS","NORAD_CAT_ID":"43477","OBJECT_NAME":"GRACE-FO 2","OBJECT_TYPE":"PAYLOAD","CLASSIFICATION_TYPE":"U","INTLDES":"18047B","EPOCH":"2023-11-13 12:45:32","EPOCH_MICROSECONDS":"997024","MEAN_MOTION":"15.27322365","ECCENTRICITY":"0.0013863","INCLINATION":"88.9812","RA_OF_ASC_NODE":"328.8614","ARG_OF_PERICENTER":"170.0124","MEAN_ANOMALY":"190.1404","EPHEMERIS_TYPE":"0","ELEMENT_SET_NO":"999","REV_AT_EPOCH":"30478","BSTAR":"0.00014052","MEAN_MOTION_DOT":"0.00003797","MEAN_MOTION_DDOT":"0","FILE":"4087425","TLE_LINE0":"0 GRACE-FO 2","TLE_LINE1":"1 43477U 18047B   23317.53163191  .00003797  00000-0  14052-3 0  9991","TLE_LINE2":"2 43477  88.9812 328.8614 0013863 170.0124 190.1404 15.27322365304788","OBJECT_ID":"2018-047B","OBJECT_NUMBER":"43477","SEMIMAJOR_AXIS":"6861.958","PERIOD":"94.283","APOGEE":"493.335","PERIGEE":"474.310","DECAYED":"0"},{"COMMENT":"GENERATED VIA SPACETRACK.ORG API","ORIGINATOR":"18 SPCS","NORAD_CAT_ID":"43477","OBJECT_NAME":"GRACE-FO 2","OBJECT_TYPE":"PAYLOAD","CLASSIFICATION_TYPE":"U","INTLDES":"18047B","EPOCH":"2023-11-13 22:11:38","EPOCH_MICROSECONDS":"580576","MEAN_MOTION":"15.27325052","ECCENTRICITY":"0.0013928","INCLINATION":"88.9811","RA_OF_ASC_NODE":"328.8076","ARG_OF_PERICENTER":"168.5459","MEAN_ANOMALY":"191.611","EPHEMERIS_TYPE":"0","ELEMENT_SET_NO":"999","REV_AT_EPOCH":"30484","BSTAR":"0.00014026","MEAN_MOTION_DOT":"0.0000379","MEAN_MOTION_DDOT":"0","FILE":"4087875","TLE_LINE0":"0 GRACE-FO 2","TLE_LINE1":"1 43477U 18047B   23317.92475209  .00003790  00000-0  14026-3 0  9994","TLE_LINE2":"2 43477  88.9811 328.8076 0013928 168.5459 191.6110 15.27325052304847","OBJECT_ID":"2018-047B","OBJECT_NUMBER":"43477","SEMIMAJOR_AXIS":"6861.950","PERIOD":"94.282","APOGEE":"493.372","PERIGEE":"474.257","DECAYED":"0"},{"COMMENT":"GENERATED VIA SPACETRACK.ORG API","ORIGINATOR":"18 SPCS","NORAD_CAT_ID":"43477","OBJECT_NAME":"GRACE-FO 2","OBJECT_TYPE":"PAYLOAD","CLASSIFICATION_TYPE":"U","INTLDES":"18047B","EPOCH":"2023-11-14 10:46:25","EPOCH_MICROSECONDS":"924224","MEAN_MOTION":"15.27328164","ECCENTRICITY":"0.0014041","INCLINATION":"88.9811","RA_OF_ASC_NODE":"328.7356","ARG_OF_PERICENTER":"166.6137","MEAN_ANOMALY":"193.5488","EPHEMERIS_TYPE":"0","ELEMENT_SET_NO":"999","REV_AT_EPOCH":"30492","BSTAR":"0.00013358","MEAN_MOTION_DOT":"0.00003612","MEAN_MOTION_DDOT":"0","FILE":"4088621","TLE_LINE0":"0 GRACE-FO 2","TLE_LINE1":"1 43477U 18047B   23318.44891116  .00003612  00000-0  13358-3 0  9991","TLE_LINE2":"2 43477  88.9811 328.7356 0014041 166.6137 193.5488 15.27328164304921","OBJECT_ID":"2018-047B","OBJECT_NUMBER":"43477","SEMIMAJOR_AXIS":"6861.940","PERIOD":"94.282","APOGEE":"493.440","PERIGEE":"474.170","DECAYED":"0"},{"COMMENT":"GENERATED VIA SPACETRACK.ORG API","ORIGINATOR":"18 SPCS","NORAD_CAT_ID":"43477","OBJECT_NAME":"GRACE-FO 2","OBJECT_TYPE":"PAYLOAD","CLASSIFICATION_TYPE":"U","INTLDES":"18047B","EPOCH":"2023-11-14 13:55:07","EPOCH_MICROSECONDS":"743936","MEAN_MOTION":"15.27329098","ECCENTRICITY":"0.0014051","INCLINATION":"88.9811","RA_OF_ASC_NODE":"328.7176","ARG_OF_PERICENTER":"166.1213","MEAN_ANOMALY":"194.0425","EPHEMERIS_TYPE":"0","ELEMENT_SET_NO":"999","REV_AT_EPOCH":"30494","BSTAR":"0.00013436","MEAN_MOTION_DOT":"0.00003633","MEAN_MOTION_DDOT":"0","FILE":"4089264","TLE_LINE0":"0 GRACE-FO 2","TLE_LINE1":"1 43477U 18047B   23318.57995074  .00003633  00000-0  13436-3 0  9993","TLE_LINE2":"2 43477  88.9811 328.7176 0014051 166.1213 194.0425 15.27329098304948","OBJECT_ID":"2018-047B","OBJECT_NUMBER":"43477","SEMIMAJOR_AXIS":"6861.937","PERIOD":"94.282","APOGEE":"493.444","PERIGEE":"474.161","DECAYED":"0"},{"COMMENT":"GENERATED VIA SPACETRACK.ORG API","ORIGINATOR":"18 SPCS","NORAD_CAT_ID":"43477","OBJECT_NAME":"GRACE-FO 2","OBJECT_TYPE":"PAYLOAD","CLASSIFICATION_TYPE":"U","INTLDES":"18047B","EPOCH":"2023-11-14 21:46:52","EPOCH_MICROSECONDS":"234464","MEAN_MOTION":"15.27331945","ECCENTRICITY":"0.0014111","INCLINATION":"88.981","RA_OF_ASC_NODE":"328.6728","ARG_OF_PERICENTER":"164.9651","MEAN_ANOMALY":"195.2021","EPHEMERIS_TYPE":"0","ELEMENT_SET_NO":"999","REV_AT_EPOCH":"30499","BSTAR":"0.00014049","MEAN_MOTION_DOT":"0.00003797","MEAN_MOTION_DDOT":"0","FILE":"4089734","TLE_LINE0":"0 GRACE-FO 2","TLE_LINE1":"1 43477U 18047B   23318.90754901  .00003797  00000-0  14049-3 0  9994","TLE_LINE2":"2 43477  88.9810 328.6728 0014111 164.9651 195.2021 15.27331945304992","OBJECT_ID":"2018-047B","OBJECT_NUMBER":"43477","SEMIMAJOR_AXIS":"6861.929","PERIOD":"94.282","APOGEE":"493.477","PERIGEE":"474.111","DECAYED":"0"},{"COMMENT":"GENERATED VIA SPACETRACK.ORG API","ORIGINATOR":"18 SPCS","NORAD_CAT_ID":"43477","OBJECT_NAME":"GRACE-FO 2","OBJECT_TYPE":"PAYLOAD","CLASSIFICATION_TYPE":"U","INTLDES":"18047B","EPOCH":"2023-11-15 11:56:00","EPOCH_MICROSECONDS":"234816","MEAN_MOTION":"15.2733546","ECCENTRICITY":"0.0014226","INCLINATION":"88.981","RA_OF_ASC_NODE":"328.5919","ARG_OF_PERICENTER":"162.8985","MEAN_ANOMALY":"197.2747","EPHEMERIS_TYPE":"0","ELEMENT_SET_NO":"999","REV_AT_EPOCH":"30508","BSTAR":"0.00012921","MEAN_MOTION_DOT":"0.00003496","MEAN_MOTION_DDOT":"0","FILE":"4090450","TLE_LINE0":"0 GRACE-FO 2","TLE_LINE1":"1 43477U 18047B   23319.49722494  .00003496  00000-0  12921-3 0  9994","TLE_LINE2":"2 43477  88.9810 328.5919 0014226 162.8985 197.2747 15.27335460305081","OBJECT_ID":"2018-047B","OBJECT_NUMBER":"43477","SEMIMAJOR_AXIS":"6861.918","PERIOD":"94.282","APOGEE":"493.545","PERIGEE":"474.022","DECAYED":"0"},{"COMMENT":"GENERATED VIA SPACETRACK.ORG API","ORIGINATOR":"18 SPCS","NORAD_CAT_ID":"43477","OBJECT_NAME":"GRACE-FO 2","OBJECT_TYPE":"PAYLOAD","CLASSIFICATION_TYPE":"U","INTLDES":"18047B","EPOCH":"2023-11-15 13:30:21","EPOCH_MICROSECONDS":"110112","MEAN_MOTION":"15.27336169","ECCENTRICITY":"0.0014235","INCLINATION":"88.9811","RA_OF_ASC_NODE":"328.5829","ARG_OF_PERICENTER":"162.6626","MEAN_ANOMALY":"197.5113","EPHEMERIS_TYPE":"0","ELEMENT_SET_NO":"999","REV_AT_EPOCH":"30509","BSTAR":"0.00013141","MEAN_MOTION_DOT":"0.00003555","MEAN_MOTION_DDOT":"0","FILE":"4090840","TLE_LINE0":"0 GRACE-FO 2","TLE_LINE1":"1 43477U 18047B   23319.56274433  .00003555  00000-0  13141-3 0  9998","TLE_LINE2":"2 43477  88.9811 328.5829 0014235 162.6626 197.5113 15.27336169305090","OBJECT_ID":"2018-047B","OBJECT_NUMBER":"43477","SEMIMAJOR_AXIS":"6861.916","PERIOD":"94.282","APOGEE":"493.549","PERIGEE":"474.013","DECAYED":"0"},{"COMMENT":"GENERATED VIA SPACETRACK.ORG API","ORIGINATOR":"18 SPCS","NORAD_CAT_ID":"43477","OBJECT_NAME":"GRACE-FO 2","OBJECT_TYPE":"PAYLOAD","CLASSIFICATION_TYPE":"U","INTLDES":"18047B","EPOCH":"2023-11-15 22:56:26","EPOCH_MICROSECONDS":"365344","MEAN_MOTION":"15.27339173","ECCENTRICITY":"0.0014298","INCLINATION":"88.9811","RA_OF_ASC_NODE":"328.5289","ARG_OF_PERICENTER":"161.2536","MEAN_ANOMALY":"198.9243","EPHEMERIS_TYPE":"0","ELEMENT_SET_NO":"999","REV_AT_EPOCH":"30515","BSTAR":"0.00013478","MEAN_MOTION_DOT":"0.00003645","MEAN_MOTION_DDOT":"0","FILE":"4091289","TLE_LINE0":"0 GRACE-FO 2","TLE_LINE1":"1 43477U 18047B   23319.95586071  .00003645  00000-0  13478-3 0  9998","TLE_LINE2":"2 43477  88.9811 328.5289 0014298 161.2536 198.9243 15.27339173305158","OBJECT_ID":"2018-047B","OBJECT_NUMBER":"43477","SEMIMAJOR_AXIS":"6861.907","PERIOD":"94.282","APOGEE":"493.583","PERIGEE":"473.961","DECAYED":"0"},{"COMMENT":"GENERATED VIA SPACETRACK.ORG API","ORIGINATOR":"18 SPCS","NORAD_CAT_ID":"43477","OBJECT_NAME":"GRACE-FO 2","OBJECT_TYPE":"PAYLOAD","CLASSIFICATION_TYPE":"U","INTLDES":"18047B","EPOCH":"2023-11-16 13:05:34","EPOCH_MICROSECONDS":"149696","MEAN_MOTION":"15.27341784","ECCENTRICITY":"0.001443","INCLINATION":"88.9811","RA_OF_ASC_NODE":"328.448","ARG_OF_PERICENTER":"159.139","MEAN_ANOMALY":"201.0451","EPHEMERIS_TYPE":"0","ELEMENT_SET_NO":"999","REV_AT_EPOCH":"30524","BSTAR":"0.00011546","MEAN_MOTION_DOT":"0.00003128","MEAN_MOTION_DDOT":"0","FILE":"4092274","TLE_LINE0":"0 GRACE-FO 2","TLE_LINE1":"1 43477U 18047B   23320.54553414  .00003128  00000-0  11546-3 0  9990","TLE_LINE2":"2 43477  88.9811 328.4480 0014430 159.1390 201.0451 15.27341784305240","OBJECT_ID":"2018-047B","OBJECT_NUMBER":"43477","SEMIMAJOR_AXIS":"6861.899","PERIOD":"94.281","APOGEE":"493.666","PERIGEE":"473.863","DECAYED":"0"}]